{"fetched_at":"2026-03-29T16:36:15Z","count":15609,"tles":[{"name":"STARLINK-2386","line1":"1 47805U 21018U   26087.85480791 -.00000713  00000+0 -28992-4 0  9997","line2":"2 47805  53.0547 145.8264 0000788  92.7474 267.3605 15.06395590279769","category":"Starlink"}]}