{
  "norad_id": 47805,
  "name": "STARLINK-2386",
  "history": [
    {
      "epoch": "2026-03-28T20:30:55.403424Z",
      "apogee_km": 547.7712080392484,
      "perigee_km": 546.67893993294,
      "latitude_deg": -1.7480368036631633e-05,
      "longitude_deg": 11.826266294695206,
      "height_km": 548.1294549618593,
      "semi_major_axis_km": 6925.362073986094,
      "eccentricity": 7.886e-05,
      "inclination_deg": 53.0547,
      "raan_deg": 145.8264,
      "arg_perigee_deg": 92.7474,
      "mean_anomaly_deg": 267.3605,
      "mean_motion_rev_day": 15.0639559
    }
  ]
}